Satellite: GOLIAT
Catalog number: 38085
Epoch time:      12117.25084711
Element set:     172
Inclination:      069.4928 deg
RA of node:       074.2367 deg
Eccentricity:    0.0758917
Arg of perigee:   313.3327 deg
Mean anomaly:     040.6816 deg
Mean motion:   14.11009920 rev/day
Decay rate:     6.7288e-04 rev/day^2
Epoch rev:            1024
Checksum:              297

/EX



From ray.hoad at mypbmail.com  Thu Apr 26 20:04:04 2012
From: ray.hoad at mypbmail.com (Ray Hoad)
Date: Thu, 26 Apr 2012 22:04:04 -0500
Subject: [keps] orb12117.2l.amsat
Message-ID: <5AD44195EB214B8C857D6A88A04CEDA0@ray45af0265077>

SB KEPS @ AMSAT  $ORB12117.N
2Line Orbital Elements 12117.AMSAT

HR AMSAT ORBITAL ELEMENTS FOR AMATEUR SATELLITES IN NASA FORMAT
FROM WA5QGD FORT WORTH,TX April 26, 2012
Send SUBSCRIBE KEPS/UNSUBSCRIBE KEPS to majordomo at amsat.org only
BID: ORB12117.N

DECODE 2-LINE ELSETS WITH THE FOLLOWING KEY:
1 AAAAAU 00  0  0 BBBBB.BBBBBBBB  .CCCCCCCC  00000-0  00000-0 0  DDDZ
2 AAAAA EEE.EEEE FFF.FFFF GGGGGGG HHH.HHHH III.IIII JJ.JJJJJJJJKKKKKZ
KEY: A-CATALOGNUM B-EPOCHTIME C-DECAY D-ELSETNUM E-INCLINATION F-RAAN
G-ECCENTRICITY H-ARGPERIGEE I-MNANOM J-MNMOTION K-ORBITNUM Z-CHECKSUM

TO ALL RADIO AMATEURS BT

AO-07
1 07530U 74089B   12116.63330756 -.00000027  00000-0  10000-3 0  3658
2 07530 101.4016 115.8750 0012042 026.8081 333.3607 12.53588925713465
FO-29
1 24278U 96046B   12116.90282700 -.00000016  00000-0  18403-4 0  8264
2 24278 098.5816 224.4066 0350742 164.5498 196.6683 13.52981591774881
SO-33
1 25509U 98061B   12116.72585965  .00001000  00000-0  18839-3 0 02179
2 25509 031.4313 270.5612 0352104 104.3041 259.6945 14.28711113705145
RS-22
1 27939U 03042A   12117.53237128  .00000961  00000-0  19175-3 0  2997
2 27939 097.8159 320.9897 0014611 070.2422 290.0379 14.63984371458327
VO-52
1 28650U 05017B   12116.69337969  .00001614  00000-0  20453-3 0 00863
2 28650 097.6014 150.2079 0025817 211.3009 148.6666 14.82845489377190
HO-68
1 36122U 09072B   12117.60641447 -.00000044  00000-0  00000 0 0  4102
2 36122 100.3657 177.9830 0007199 225.2134 134.8403 13.16294719113605
UO-11
1 14781U 84021B   12116.73937543  .00000969  00000-0  13371-3 0 08685
2 14781 097.9564 176.7074 0008615 196.0341 164.0599 14.80396535512173
AO-16
1 20439U 90005D   12117.45344259  .00000189  00000-0  86166-4 0  4512
2 20439 098.4262 062.2862 0010580 317.8849 042.1520 14.32041532162593
LO-19
1 20442U 90005G   12116.92542465  .00000226  00000-0  99511-4 0 03784
2 20442 098.3918 064.9638 0011178 309.5087 050.5101 14.32260851162708
AO-27
1 22825U 93061C   12116.74854087  .00000160  00000-0  79682-4 0 00884
2 22825 098.5712 060.3906 0009294 075.0086 285.2136 14.29450013968983
IO-26
1 22826U 93061D   12117.52926530  .00000160  00000-0  79344-4 0  8383
2 22826 098.5656 061.5419 0009930 067.0274 293.1955 14.29722807969228
GO-32
1 25397U 98043D   12117.51574373 -.00000044  00000-0 -15361-5 0  7604
2 25397 098.3585 098.7798 0002242 081.2523 278.8914 14.23269297716676
NO-44
1 26931U 01043C   12116.71778447  .00000057  00000-0  54335-4 0   251
2 26931 067.0531 255.5680 0007267 271.5718 088.4518 14.29785751551744
SO-50
1 27607U 02058C   12116.93822111  .00001245  00000-0  20723-3 0 07475
2 27607 064.5570 093.8328 0084538 258.8865 100.2722 14.72327870502275
CO-55
1 27844U 03031E   12116.60568102  .00000045  00000-0  41104-4 0  3594
2 27844 098.7022 125.7509 0010167 019.5653 340.5923 14.20999258457425
CO-57
1 27848U 03031J   12117.58612896 -.00000426  00000-0 -17691-3 0  3112
2 27848 098.7098 126.0261 0010115 022.9774 337.1799 14.20752758457500
AO-51
1 28375U 04025K   12117.48647370  .00000151  00000-0  57912-4 0  2502
2 28375 098.1424 085.1826 0082720 197.2092 162.6290 14.40929921411322
CP3
1 31129U 07012N   12117.50478980  .00001083  00000-0  25649-3 0  1509
2 31129 097.8809 128.3228 0099936 284.2082 074.7992 14.53010617266478
CO-65
1 32785U 08021C   12116.68113357  .00002395  00000-0  30167-3 0 02915
2 32785 097.8032 178.9670 0013781 230.8448 129.1578 14.82860282215982
PRISM
1 33493U 09002B   12117.53661323  .00005244  00000-0  63986-3 0  6418
2 33493 098.1651 256.9035 0020231 104.5785 255.7662 14.83632462176097
SOHLA-1
1 33496U 09002E   12116.96286712  .00000792  00000-0  14047-3 0 07128
2 33496 098.0988 229.0605 0006264 198.6622 161.4353 14.69931153174574
SO-67
1 35870U 09049F   12117.63518998  .00006823  00000-0  28956-3 0  9000
2 35870 097.2371 155.1978 0002502 041.5619 104.6273 15.23396140144764
TISAT-1
1 36799U 10035E   12117.48296665  .00002889  00000-0  37242-3 0  9179
2 36799 098.0627 193.4413 0014262 345.5234 014.5561 14.81778660 96830
STUDSAT
1 36801U 10035G   12116.88604707  .00007940  00000-0  96296-3 0 03841
2 36801 098.0701 193.3343 0012088 333.0420 027.0167 14.83806143096764
FO-69
1 37227U 0        12116.07696006  .00000670  00000-0  10272-3 0 01659
2 37227 071.9704 069.1498 0015334 055.8878 304.3681 14.77015651028254
FO-70
1 37380U 0        12116.07361532  .00000692  00000-0  10641-3 0 01689
2 37380 071.9737 069.6461 0016000 053.0808 307.1778 14.76769587028148
ALMASAT-1
1 38078U 12006B   12116.92190876  .00038758  00000-0  10716-2 0 01550
2 38078 069.4901 075.5191 0766176 313.9962 040.0303 14.07650383010199
XATCOBEO
1 38082U 12006F   12117.28752276  .00083834  00000-0  20843-2 0  1909
2 38082 069.4927 073.9787 0752826 313.1460 040.8996 14.12583278 10254
NOAA-10
1 16969U 86073A   12116.94328019  .00000028  00000-0  28882-4 0 09062
2 16969 098.5843 146.9146 0012827 031.1969 328.9971 14.27543808332414
NOAA-11
1 19531U 88089A   12116.74669826 -.00000133  00000-0 -46508-4 0 09009
2 19531 098.7317 203.0052 0011616 017.5932 342.5647 14.14962539217094
NOAA-12
1 21263U 91032A   12117.80813743  .00000096  00000-0  40675-4 0  3888
2 21263 098.7301 139.7100 0013811 354.4501 005.6999 14.25490203 89219
MET-3/5
1 21655U 91056A   12116.80706051  .00000051  00000-0  10000-3 0 03936
2 21655 082.5595 189.1874 0014887 093.8445 266.4373 13.17034727995003
MET-2/21
1 22782U 93055A   12116.80268649  .00000123  00000-0  98067-4 0 04026
2 22782 082.5470 074.0728 0021216 302.4169 057.4943 13.83680352941920
OKEAN-4
1 23317U 94066A   12116.96957581  .00001550  00000-0  18399-3 0 09143
2 23317 082.5389 080.0153 0021836 159.2373 200.9732 14.83708071947068
NOAA-14
1 23455U 94089A   12116.96328420  .00000067  00000-0  58512-4 0 08856
2 23455 098.8267 201.1158 0010233 105.9884 254.2413 14.13892025893414
NOAA-15
1 25338U 98030A   12116.74898713  .00000135  00000-0  76444-4 0 02394
2 25338 098.6877 104.1609 0009626 260.7076 099.2981 14.25057065725388
RESURS
1 25394U 98043A   12116.92435917  .00000080  00000-0  52324-4 0 00762
2 25394 098.3180 107.9210 0002305 048.7071 311.4309 14.24284010716967
FENGYUN1
1 25730U 99025A   12117.46611332  .00001796  00000-0  10522-2 0  5913
2 25730 098.8449 077.3598 0018807 147.9960 212.2355 14.09428228667324
OKEAN-0
1 25860U 99039A   12116.92911528  .00000641  00000-0  10464-3 0 06300
2 25860 097.9309 080.6586 0001913 060.0405 300.0995 14.74162387686876
NOAA-16
1 26536U 00055A   12117.19438042 -.00000040  00000-0  33662-5 0  7241
2 26536 099.0985 158.5011 0009945 227.0550 132.9813 14.12727334597690
NOAA-17
1 27453U 02032A   12116.97219053  .00000308  00000-0  15058-3 0 06838
2 27453 098.3394 146.6360 0010865 313.2542 046.7739 14.24421480511323
NOAA-18
1 28654U 05018A   12116.89926110  .00000013  00000-0  32370-4 0 01586
2 28654 099.0422 074.5655 0013737 305.1944 054.7937 14.11637454357187
NOAA-19
1 33591U 09005A   12116.96633159  .00000508  00000-0  30526-3 0 03501
2 33591 098.8617 057.4109 0014030 165.3277 194.8327 14.11326807165646
HUBBLE
1 20580U 90037B   12117.24583394  .00002166  00000-0  14719-3 0  9905
2 20580 028.4682 123.4295 0003528 220.8182 139.2245 15.02409294  6912
ISS
1 25544U 98067A   12118.04916667  .00018899  00000-0  25854-3 0  4472
2 25544 051.6424 018.1816 0009380 287.1428 267.1485 15.57412237770049
CO-58
1 28895U 05043F   12117.29292389  .00001076  00000-0  23022-3 0  1594
2 28895 097.9199 345.8281 0016644 317.2872 042.7014 14.60578417346082
FALCON
1 30776U 07006E   12117.65931104  .00006792  00000-0  44442-3 0  3334
2 30776 035.4310 231.4836 0001794 309.0985 050.9570 15.07189370282473
MAST
1 31126U 07012K   12116.92689336  .00000708  00000-0  16866-3 0 04495
2 31126 097.8760 131.0831 0092694 273.8073 085.2544 14.54115719266672
CAPE1
1 31130U 07012P   12116.57442125  .00000759  00000-0  18323-3 0 04557
2 31130 097.8817 127.1658 0100453 287.7305 071.2949 14.52879645266136
COMPASS
1 32787U 08021E   12117.61946835  .00003942  00000-0  48122-3 0  2869
2 32787 097.8045 180.0911 0014436 226.1556 133.8482 14.83803680216163
AAUSAT2
1 32788U 08021F   12116.85838937  .00003278  00000-0  39848-3 0 02786
2 32788 097.8078 179.6992 0013745 228.8371 131.1688 14.84097893216070
DO-64
1 32789U 08021G   12116.88865242  .00006364  00000-0  74269-3 0 02953
2 32789 097.8159 181.5587 0013981 225.0692 134.9406 14.85445676216111
CO-66
1 32791U 08021J   12117.65684096  .00002595  00000-0  32319-3 0  2770
2 32791 097.8035 179.9082 0014717 227.2499 132.7493 14.83252997216106
RS-30
1 32953U 08025A   12117.53601736  .00000010  00000-0  00000 0 0  7291
2 32953 082.5028 327.2670 0019715 061.8010 298.5077 12.43022702178147
TACSAT-3
1 35001U 09028A   12116.92202569  .01342310  12008-2  12298-2 0 09793
2 35001 040.4419 024.3411 0018237 245.3326 114.5583 16.11353863166214
PHARMSAT
1 35002U 09028B   12117.22009461  .00120478  00000-0  79027-3 0  8770
2 35002 040.4637 037.6724 0005075 220.7717 139.2731 15.74538273166103
METEOR-M
1 35865U 09049A   12117.63833067 -.00000011  00000-0  14805-4 0  3570
2 35865 098.6589 172.9175 0002093 181.6841 178.4334 14.21860099135277
RS-38
1 35869U 09049E   12117.59665150  .00000367  00000-0  18568-3 0  3667
2 35869 098.6526 172.8826 0004294 192.1735 167.9370 14.22067107135282
JUGNU
1 37839U 11058B   12117.30200945  .00000619  00000-0  19019-3 0  1362
2 37839 019.9613 312.5705 0018999 009.5326 350.5217 14.12045694 27902
SRMSAT
1 37841U 11058D   12117.63975836  .00000264  00000-0  00000 0 0  1372
2 37841 019.9727 314.3630 0011487 341.5112 018.4746 14.10133419 27903
RAX-2
1 37853U 11061D   12117.59780385  .00007025  00000-0  56273-3 0  1602
2 37853 101.7164 134.3111 0249103 137.9982 224.0608 14.79469062 26761
AUBIESAT
1 37854U 11061E   12116.95672912  .00007538  00000-0  59265-3 0 01713
2 37854 101.7176 133.5682 0250795 139.2285 222.8000 14.79812386026661
HRBE
1 37855U 11061F   12116.96568730  .00007138  00000-0  56202-3 0 01711
2 37855 101.7179 133.5482 0251534 139.3189 222.7131 14.79687726026661
RS-39
1 38051U 11062C   12117.45104406  .00013322  00000-0  56401-3 0  2817
2 38051 051.6317 046.2328 0010649 210.4147 259.9414 15.23423882 14081
E-STAR
1 38079U 12006C   12117.29353923  .00074032  00000-0  18088-2 0  1764
2 38079 069.4944 074.0266 0757916 313.1377 040.8636 14.11867668 10253
GOLIAT
1 38085U 12006J   12117.25084711  .00067288  00000-0  16979-2 0  1721
2 38085 069.4928 074.2367 0758917 313.3327 040.6816 14.11009920 10241
/EX



From ray.hoad at mypbmail.com  Thu May  3 21:42:40 2012
From: ray.hoad at mypbmail.com (Ray Hoad)
Date: Thu, 3 May 2012 23:42:40 -0500
Subject: [keps] orb12124.amsat
Message-ID: <308AFE5597CA40E38E614E3A58D754E0@ray45af0265077>

SB KEPS @ AMSAT  $ORB12124.O
Orbital Elements  12124.OSCAR

HR AMSAT ORBITAL ELEMENTS FOR OSCAR SATELLITES
FROM WA5QGD FORT WORTH,TX May 3, 2012
Send SUBSCRIBE KEPS/UNSUBSCRIBE KEPS to majordomo at amsat.org only
BID: ORB12124.O
TO ALL RADIO AMATEURS BT

